STARLINK-37948          
1 69670U 26143X   26193.07988926  .00034313  00000+0  62932-3 0  9992
2 69670  97.2870 237.0216 0000676  97.7071 262.4257 15.49212335  4337
STARLINK-37949          
1 69671U 26143Y   26193.16668980  .00014179  00000+0  26163-3 0  9992
2 69671  97.2851 237.1663 0000756  51.7095 208.1250 15.49218917  4375
STARLINK-37946          
1 69672U 26143Z   26193.16668980  .00009701  00000+0  17969-3 0  9992
2 69672  97.2853 237.2005 0001430  60.6468 276.8741 15.49209268  4378
TJS-26A                 
1 69674U 26144A   26192.92077086 -.00000340  00000+0  00000+0 0  9994
2 69674   6.9544 323.2307 0004064 347.6744  57.9151  1.00276775   194
CZ-7A R/B               
1 69675U 26144B   26192.97601422  .00428109 -24057-6  51929-3 0  9999
2 69675  19.4535 316.5423 7127509 193.9423 124.6526  2.55206131   481
2026-132G               
1 69676U 26132G   26189.43473603  .00006559  00000+0  42983-3 0  9997
2 69676  97.6875 253.0023 0024591 224.5551 135.3700 15.07805957  3973
STARLINK-38005          
1 69677U 26145A   26193.00032689  .00181093  00000+0  11852-2 0  9992
2 69677  97.2856  39.6779 0000956  78.2110 281.9263 15.75272124  2676
STARLINK-38009          
1 69678U 26145B   26192.99855860  .00180261  00000+0  11802-2 0  9995
2 69678  97.2844  39.6815 0000880  95.3079 264.8286 15.75266391  2679
STARLINK-37998          
1 69679U 26145C   26193.16668980 -.00173159  00000+0 -11794-2 0  9991
2 69679  97.2852  39.8643 0001460  90.0335 156.8021 15.75272794  3944
STARLINK-37994          
1 69680U 26145D   26193.16668980 -.00118725  00000+0 -80463-3 0  9991
2 69680  97.2856  39.8611 0001430 102.1343 136.7253 15.75234573  3943
STARLINK-37992          
1 69681U 26145E   26193.12384936  .08595581  00000+0  43690-1 0  9998
2 69681  97.2865  39.8204 0004393 245.5984 114.4824 15.76999029  2699
STARLINK-37997          
1 69682U 26145F   26193.16668980 -.00128601  00000+0 -87225-3 0  9990
2 69682  97.2852  39.8638 0001420 106.3376 138.5132 15.75244936  3941
STARLINK-37990          
1 69683U 26145G   26193.16668980 -.00142533  00000+0 -96810-3 0  9991
2 69683  97.2852  39.8626 0001319  85.8382 157.0085 15.75252637  3944
STARLINK-37951          
1 69684U 26145H   26192.99574332  .00149243  00000+0  98167-3 0  9999
2 69684  97.2836  39.6832 0001218  38.4494 321.6858 15.75246541  2673
STARLINK-37957          
1 69685U 26145J   26193.05821712  .00167681  00000+0  11025-2 0  9998
2 69685  97.2860  39.7551 0002380  88.7043 271.4495 15.75201442  2680
STARLINK-37968          
1 69686U 26145K   26193.05221448  .00203667  00000+0  13321-2 0  9995
2 69686  97.2839  39.7618 0001384  76.5173 283.6246 15.75224262  2687
STARLINK-37977          
1 69687U 26145L   26193.05150654  .00131566  00000+0  87012-3 0  9993
2 69687  97.2851  39.7619 0000915  87.2364 272.9006 15.75171609  2684
STARLINK-37908          
1 69688U 26145M   26193.04939101  .00132062  00000+0  87063-3 0  9993
2 69688  97.2850  39.7668 0001067  41.8313 318.3033 15.75243604  2687
STARLINK-37979          
1 69689U 26145N   26193.04904003  .00202276  00000+0  13205-2 0  9998
2 69689  97.2838  39.7663 0001366  63.6310 296.5095 15.75271968  2689
STARLINK-37940          
1 69690U 26145P   26193.04798105  .00241295  00000+0  15663-2 0  9998
2 69690  97.2843  39.7682 0001429  55.6588 304.4812 15.75293103  2687
STARLINK-37961          
1 69691U 26145Q   26193.04480359  .00148215  00000+0  97486-3 0  9990
2 69691  97.2843  39.7722 0001090  69.6218 290.5165 15.75250761  2681
STARLINK-37787          
1 69692U 26145R   26193.04268696  .00151616  00000+0  99685-3 0  9991
2 69692  97.2836  39.7755 0001101  71.7760 288.3625 15.75249954  2687
STARLINK-37962          
1 69693U 26145S   26193.04092176  .00152753  00000+0  10041-2 0  9991
2 69693  97.2851  39.7779 0001140  64.0173 296.1210 15.75251802  2689
STARLINK-37953          
1 69694U 26145T   26193.04374683  .00127405  00000+0  84070-3 0  9998
2 69694  97.2838  39.7737 0001503  70.1413 290.0014 15.75235587  2684
STARLINK-37926          
1 69695U 26145U   26193.16668980 -.00157547  00000+0 -10714-2 0  9993
2 69695  97.2847  39.9057 0001389  90.9490 249.8763 15.75265036  3944
STARLINK-37959          
1 69696U 26145V   26193.04198231  .00223836  00000+0  14569-2 0  9993
2 69696  97.2847  39.7754 0001365  61.5028 298.6374 15.75279365  2682
STARLINK-37976          
1 69697U 26145W   26193.03915910  .00155453  00000+0  10217-2 0  9999
2 69697  97.2836  39.7797 0001415  79.7604 280.3821 15.75246883  2689
STARLINK-37912          
1 69698U 26145X   26193.03810014  .00160500  00000+0  10539-2 0  9995
2 69698  97.2838  39.7820 0001428  67.8356 292.3061 15.75253099  2681
STARLINK-37974          
1 69699U 26145Y   26193.03739544  .00166961  00000+0  10955-2 0  9993
2 69699  97.2837  39.7830 0001637  75.5286 284.6161 15.75253563  2683
STARLINK-37955          
1 69700U 26145Z   26193.16197127  .00077504  00000+0  51654-3 0  9991
2 69700  97.2846  39.9200 0001658  95.4865 264.6589 15.75155733  2701
