OBJECT_NAME,OBJECT_ID,EPOCH,MEAN_MOTION,ECCENTRICITY,INCLINATION,RA_OF_ASC_NODE,ARG_OF_PERICENTER,MEAN_ANOMALY,EPHEMERIS_TYPE,CLASSIFICATION_TYPE,NORAD_CAT_ID,ELEMENT_SET_NO,REV_AT_EPOCH,BSTAR,MEAN_MOTION_DOT,MEAN_MOTION_DDOT
STARLINK-37948,2026-143X,2026-07-12T01:55:02.432064,15.49212335,.0000676,97.2870,237.0216,97.7071,262.4257,0,U,69670,999,433,.62932E-3,.34313E-3,0
STARLINK-37949,2026-143Y,2026-07-12T04:00:01.998720,15.49218917,.0000756,97.2851,237.1663,51.7095,208.1250,0,U,69671,999,437,.26163E-3,.14179E-3,0
STARLINK-37946,2026-143Z,2026-07-12T04:00:01.998720,15.49209268,.000143,97.2853,237.2005,60.6468,276.8741,0,U,69672,999,437,.17969E-3,.9701E-4,0
TJS-26A,2026-144A,2026-07-11T22:05:54.602304,1.00276775,.0004064,6.9544,323.2307,347.6744,57.9151,0,U,69674,999,19,0,-.34E-5,0
CZ-7A R/B,2026-144B,2026-07-11T23:25:27.628608,2.55206131,.7127509,19.4535,316.5423,193.9423,124.6526,0,U,69675,999,48,.51929E-3,.428109E-2,-.24057E-6
2026-132G,2026-132G,2026-07-08T10:26:01.192992,15.07805957,.00245918,97.6875,253.0023,224.5551,135.3700,0,U,69676,999,397,.42982552E-3,.6559E-4,0
STARLINK-38005,2026-145A,2026-07-12T00:00:28.243296,15.75272124,.0000956,97.2856,39.6779,78.2110,281.9263,0,U,69677,999,267,.11852E-2,.181093E-2,0
STARLINK-38009,2026-145B,2026-07-11T23:57:55.463040,15.75266391,.000088,97.2844,39.6815,95.3079,264.8286,0,U,69678,999,267,.11802E-2,.180261E-2,0
STARLINK-37998,2026-145C,2026-07-12T04:00:01.998720,15.75272794,.000146,97.2852,39.8643,90.0335,156.8021,0,U,69679,999,394,-.11794E-2,-.173159E-2,0
STARLINK-37994,2026-145D,2026-07-12T04:00:01.998720,15.75234573,.000143,97.2856,39.8611,102.1343,136.7253,0,U,69680,999,394,-.80463E-3,-.118725E-2,0
STARLINK-37992,2026-145E,2026-07-12T02:58:20.584704,15.76999029,.0004393,97.2865,39.8204,245.5984,114.4824,0,U,69681,999,269,.4369E-1,.8595581E-1,0
STARLINK-37997,2026-145F,2026-07-12T04:00:01.998720,15.75244936,.000142,97.2852,39.8638,106.3376,138.5132,0,U,69682,999,394,-.87225E-3,-.128601E-2,0
STARLINK-37990,2026-145G,2026-07-12T04:00:01.998720,15.75252637,.0001319,97.2852,39.8626,85.8382,157.0085,0,U,69683,999,394,-.9681E-3,-.142533E-2,0
STARLINK-37951,2026-145H,2026-07-11T23:53:52.222848,15.75246541,.0001218,97.2836,39.6832,38.4494,321.6858,0,U,69684,999,267,.98167E-3,.149243E-2,0
STARLINK-37957,2026-145J,2026-07-12T01:23:49.959168,15.75201442,.000238,97.2860,39.7551,88.7043,271.4495,0,U,69685,999,268,.11025E-2,.167681E-2,0
STARLINK-37968,2026-145K,2026-07-12T01:15:11.331072,15.75224262,.0001384,97.2839,39.7618,76.5173,283.6246,0,U,69686,999,268,.13321E-2,.203667E-2,0
STARLINK-37977,2026-145L,2026-07-12T01:14:10.165056,15.75171609,.0000915,97.2851,39.7619,87.2364,272.9006,0,U,69687,999,268,.87012E-3,.131566E-2,0
STARLINK-37908,2026-145M,2026-07-12T01:11:07.383264,15.75243604,.0001067,97.2850,39.7668,41.8313,318.3033,0,U,69688,999,268,.87063E-3,.132062E-2,0
STARLINK-37979,2026-145N,2026-07-12T01:10:37.058592,15.75271968,.0001366,97.2838,39.7663,63.6310,296.5095,0,U,69689,999,268,.13205E-2,.202276E-2,0
STARLINK-37940,2026-145P,2026-07-12T01:09:05.562720,15.75293103,.0001429,97.2843,39.7682,55.6588,304.4812,0,U,69690,999,268,.15663E-2,.241295E-2,0
STARLINK-37961,2026-145Q,2026-07-12T01:04:31.030176,15.75250761,.000109,97.2843,39.7722,69.6218,290.5165,0,U,69691,999,268,.97486E-3,.148215E-2,0
STARLINK-37787,2026-145R,2026-07-12T01:01:28.153344,15.75249954,.0001101,97.2836,39.7755,71.7760,288.3625,0,U,69692,999,268,.99685E-3,.151616E-2,0
STARLINK-37962,2026-145S,2026-07-12T00:58:55.640064,15.75251802,.000114,97.2851,39.7779,64.0173,296.1210,0,U,69693,999,268,.10041E-2,.152753E-2,0
STARLINK-37953,2026-145T,2026-07-12T01:02:59.726112,15.75235587,.0001503,97.2838,39.7737,70.1413,290.0014,0,U,69694,999,268,.8407E-3,.127405E-2,0
STARLINK-37926,2026-145U,2026-07-12T04:00:01.998720,15.75265036,.0001389,97.2847,39.9057,90.9490,249.8763,0,U,69695,999,394,-.10714E-2,-.157547E-2,0
STARLINK-37959,2026-145V,2026-07-12T01:00:27.271584,15.75279365,.0001365,97.2847,39.7754,61.5028,298.6374,0,U,69696,999,268,.14569E-2,.223836E-2,0
STARLINK-37976,2026-145W,2026-07-12T00:56:23.346240,15.75246883,.0001415,97.2836,39.7797,79.7604,280.3821,0,U,69697,999,268,.10217E-2,.155453E-2,0
STARLINK-37912,2026-145X,2026-07-12T00:54:51.852096,15.75253099,.0001428,97.2838,39.7820,67.8356,292.3061,0,U,69698,999,268,.10539E-2,.1605E-2,0
STARLINK-37974,2026-145Y,2026-07-12T00:53:50.966016,15.75253563,.0001637,97.2837,39.7830,75.5286,284.6161,0,U,69699,999,268,.10955E-2,.166961E-2,0
STARLINK-37955,2026-145Z,2026-07-12T03:53:14.317728,15.75155733,.0001658,97.2846,39.9200,95.4865,264.6589,0,U,69700,999,270,.51654E-3,.77504E-3,0
